CCSDS_OMM_VERS = 2.0
CREATION_DATE  = 
ORIGINATOR     = 

OBJECT_NAME    = STARLINK-36587
OBJECT_ID      = 2026-014A
CENTER_NAME    = EARTH
REF_FRAME      = TEME
TIME_SYSTEM    = UTC
MEAN_ELEMENT_THEORY = SGP/SGP4

EPOCH          = 2026-02-19T03:05:15.545760
MEAN_MOTION    = 15.80899276
ECCENTRICITY   = .00016788
INCLINATION    = 97.2819
RA_OF_ASC_NODE = 294.1800
ARG_OF_PERICENTER = 88.0528
MEAN_ANOMALY   = 272.0933

EPHEMERIS_TYPE = 0
CLASSIFICATION_TYPE = U
NORAD_CAT_ID   = 67532
ELEMENT_SET_NO = 999
REV_AT_EPOCH   = 565
BSTAR          = .19217618E-2
MEAN_MOTION_DOT = .386205E-2
MEAN_MOTION_DDOT = 0

CCSDS_OMM_VERS = 2.0
CREATION_DATE  = 
ORIGINATOR     = 

OBJECT_NAME    = STARLINK-36417
OBJECT_ID      = 2026-014B
CENTER_NAME    = EARTH
REF_FRAME      = TEME
TIME_SYSTEM    = UTC
MEAN_ELEMENT_THEORY = SGP/SGP4

EPOCH          = 2026-02-19T07:17:08.319264
MEAN_MOTION    = 15.75359821
ECCENTRICITY   = .0001422
INCLINATION    = 97.2827
RA_OF_ASC_NODE = 294.2464
ARG_OF_PERICENTER = 111.5556
MEAN_ANOMALY   = 248.5861

EPHEMERIS_TYPE = 0
CLASSIFICATION_TYPE = U
NORAD_CAT_ID   = 67533
ELEMENT_SET_NO = 999
REV_AT_EPOCH   = 567
BSTAR          = .19936243E-2
MEAN_MOTION_DOT = .310578E-2
MEAN_MOTION_DDOT = 0

CCSDS_OMM_VERS = 2.0
CREATION_DATE  = 
ORIGINATOR     = 

OBJECT_NAME    = STARLINK-36576
OBJECT_ID      = 2026-014C
CENTER_NAME    = EARTH
REF_FRAME      = TEME
TIME_SYSTEM    = UTC
MEAN_ELEMENT_THEORY = SGP/SGP4

EPOCH          = 2026-02-19T03:22:21.042048
MEAN_MOTION    = 15.75276065
ECCENTRICITY   = .00022258
INCLINATION    = 97.2825
RA_OF_ASC_NODE = 294.1638
ARG_OF_PERICENTER = 77.2812
MEAN_ANOMALY   = 282.8702

EPHEMERIS_TYPE = 0
CLASSIFICATION_TYPE = U
NORAD_CAT_ID   = 67534
ELEMENT_SET_NO = 999
REV_AT_EPOCH   = 565
BSTAR          = .21530256E-2
MEAN_MOTION_DOT = .335185E-2
MEAN_MOTION_DDOT = 0

CCSDS_OMM_VERS = 2.0
CREATION_DATE  = 
ORIGINATOR     = 

OBJECT_NAME    = STARLINK-36574
OBJECT_ID      = 2026-014D
CENTER_NAME    = EARTH
REF_FRAME      = TEME
TIME_SYSTEM    = UTC
MEAN_ELEMENT_THEORY = SGP/SGP4

EPOCH          = 2026-02-19T06:00:02.000160
MEAN_MOTION    = 15.75174224
ECCENTRICITY   = .00031869
INCLINATION    = 97.2837
RA_OF_ASC_NODE = 294.3069
ARG_OF_PERICENTER = 107.4746
MEAN_ANOMALY   = 219.2660

EPHEMERIS_TYPE = 0
CLASSIFICATION_TYPE = U
NORAD_CAT_ID   = 67535
ELEMENT_SET_NO = 999
REV_AT_EPOCH   = 572
BSTAR          = -.42030585E-3
MEAN_MOTION_DOT = -.62343E-3
MEAN_MOTION_DDOT = 0

CCSDS_OMM_VERS = 2.0
CREATION_DATE  = 
ORIGINATOR     = 

OBJECT_NAME    = STARLINK-36572
OBJECT_ID      = 2026-014E
CENTER_NAME    = EARTH
REF_FRAME      = TEME
TIME_SYSTEM    = UTC
MEAN_ELEMENT_THEORY = SGP/SGP4

EPOCH          = 2026-02-19T02:22:52.463712
MEAN_MOTION    = 15.75326153
ECCENTRICITY   = .00015761
INCLINATION    = 97.2831
RA_OF_ASC_NODE = 294.0662
ARG_OF_PERICENTER = 352.9537
MEAN_ANOMALY   = 7.1706

EPHEMERIS_TYPE = 0
CLASSIFICATION_TYPE = U
NORAD_CAT_ID   = 67536
ELEMENT_SET_NO = 999
REV_AT_EPOCH   = 564
BSTAR          = .19573307E-2
MEAN_MOTION_DOT = .304249E-2
MEAN_MOTION_DDOT = 0

CCSDS_OMM_VERS = 2.0
CREATION_DATE  = 
ORIGINATOR     = 

OBJECT_NAME    = STARLINK-36561
OBJECT_ID      = 2026-014F
CENTER_NAME    = EARTH
REF_FRAME      = TEME
TIME_SYSTEM    = UTC
MEAN_ELEMENT_THEORY = SGP/SGP4

EPOCH          = 2026-02-19T02:31:30.752256
MEAN_MOTION    = 15.75279219
ECCENTRICITY   = .00003236
INCLINATION    = 97.2849
RA_OF_ASC_NODE = 294.0558
ARG_OF_PERICENTER = 91.3676
MEAN_ANOMALY   = 268.7626

EPHEMERIS_TYPE = 0
CLASSIFICATION_TYPE = U
NORAD_CAT_ID   = 67537
ELEMENT_SET_NO = 999
REV_AT_EPOCH   = 564
BSTAR          = .13102213E-2
MEAN_MOTION_DOT = .200737E-2
MEAN_MOTION_DDOT = 0

CCSDS_OMM_VERS = 2.0
CREATION_DATE  = 
ORIGINATOR     = 

OBJECT_NAME    = STARLINK-36397
OBJECT_ID      = 2026-014G
CENTER_NAME    = EARTH
REF_FRAME      = TEME
TIME_SYSTEM    = UTC
MEAN_ELEMENT_THEORY = SGP/SGP4

EPOCH          = 2026-02-19T02:37:06.215808
MEAN_MOTION    = 15.75292129
ECCENTRICITY   = .00012267
INCLINATION    = 97.2838
RA_OF_ASC_NODE = 294.0504
ARG_OF_PERICENTER = 12.7911
MEAN_ANOMALY   = 347.3385

EPHEMERIS_TYPE = 0
CLASSIFICATION_TYPE = U
NORAD_CAT_ID   = 67538
ELEMENT_SET_NO = 999
REV_AT_EPOCH   = 564
BSTAR          = .14335723E-2
MEAN_MOTION_DOT = .220274E-2
MEAN_MOTION_DDOT = 0

CCSDS_OMM_VERS = 2.0
CREATION_DATE  = 
ORIGINATOR     = 

OBJECT_NAME    = STARLINK-36573
OBJECT_ID      = 2026-014H
CENTER_NAME    = EARTH
REF_FRAME      = TEME
TIME_SYSTEM    = UTC
MEAN_ELEMENT_THEORY = SGP/SGP4

EPOCH          = 2026-02-19T06:00:02.000160
MEAN_MOTION    = 15.75239875
ECCENTRICITY   = .00015096
INCLINATION    = 97.2837
RA_OF_ASC_NODE = 294.2954
ARG_OF_PERICENTER = 98.2541
MEAN_ANOMALY   = 206.4101

EPHEMERIS_TYPE = 0
CLASSIFICATION_TYPE = U
NORAD_CAT_ID   = 67539
ELEMENT_SET_NO = 999
REV_AT_EPOCH   = 572
BSTAR          = -.82530707E-3
MEAN_MOTION_DOT = -.121758E-2
MEAN_MOTION_DDOT = 0

CCSDS_OMM_VERS = 2.0
CREATION_DATE  = 
ORIGINATOR     = 

OBJECT_NAME    = STARLINK-36585
OBJECT_ID      = 2026-014J
CENTER_NAME    = EARTH
REF_FRAME      = TEME
TIME_SYSTEM    = UTC
MEAN_ELEMENT_THEORY = SGP/SGP4

EPOCH          = 2026-02-19T02:25:25.030560
MEAN_MOTION    = 15.75307976
ECCENTRICITY   = .00014062
INCLINATION    = 97.2846
RA_OF_ASC_NODE = 294.0601
ARG_OF_PERICENTER = 358.4748
MEAN_ANOMALY   = 1.6513

EPHEMERIS_TYPE = 0
CLASSIFICATION_TYPE = U
NORAD_CAT_ID   = 67540
ELEMENT_SET_NO = 999
REV_AT_EPOCH   = 564
BSTAR          = .18056417E-2
MEAN_MOTION_DOT = .279624E-2
MEAN_MOTION_DDOT = 0

CCSDS_OMM_VERS = 2.0
CREATION_DATE  = 
ORIGINATOR     = 

OBJECT_NAME    = STARLINK-36579
OBJECT_ID      = 2026-014K
CENTER_NAME    = EARTH
REF_FRAME      = TEME
TIME_SYSTEM    = UTC
MEAN_ELEMENT_THEORY = SGP/SGP4

EPOCH          = 2026-02-19T03:45:43.098912
MEAN_MOTION    = 15.75227857
ECCENTRICITY   = .00017758
INCLINATION    = 97.2835
RA_OF_ASC_NODE = 294.1408
ARG_OF_PERICENTER = 88.9887
MEAN_ANOMALY   = 271.1582

EPHEMERIS_TYPE = 0
CLASSIFICATION_TYPE = U
NORAD_CAT_ID   = 67541
ELEMENT_SET_NO = 999
REV_AT_EPOCH   = 565
BSTAR          = .10461018E-2
MEAN_MOTION_DOT = .159106E-2
MEAN_MOTION_DDOT = 0

CCSDS_OMM_VERS = 2.0
CREATION_DATE  = 
ORIGINATOR     = 

OBJECT_NAME    = STARLINK-35934
OBJECT_ID      = 2026-014L
CENTER_NAME    = EARTH
REF_FRAME      = TEME
TIME_SYSTEM    = UTC
MEAN_ELEMENT_THEORY = SGP/SGP4

EPOCH          = 2026-02-19T06:00:02.000160
MEAN_MOTION    = 15.75235294
ECCENTRICITY   = .00018166
INCLINATION    = 97.2838
RA_OF_ASC_NODE = 294.3204
ARG_OF_PERICENTER = 96.7723
MEAN_ANOMALY   = 263.8870

EPHEMERIS_TYPE = 0
CLASSIFICATION_TYPE = U
NORAD_CAT_ID   = 67542
ELEMENT_SET_NO = 999
REV_AT_EPOCH   = 571
BSTAR          = -.71483312E-3
MEAN_MOTION_DOT = -.105658E-2
MEAN_MOTION_DDOT = 0

CCSDS_OMM_VERS = 2.0
CREATION_DATE  = 
ORIGINATOR     = 

OBJECT_NAME    = STARLINK-36581
OBJECT_ID      = 2026-014M
CENTER_NAME    = EARTH
REF_FRAME      = TEME
TIME_SYSTEM    = UTC
MEAN_ELEMENT_THEORY = SGP/SGP4

EPOCH          = 2026-02-19T03:08:07.282176
MEAN_MOTION    = 15.75272486
ECCENTRICITY   = .00020975
INCLINATION    = 97.2829
RA_OF_ASC_NODE = 294.1747
ARG_OF_PERICENTER = 92.4959
MEAN_ANOMALY   = 267.6547

EPHEMERIS_TYPE = 0
CLASSIFICATION_TYPE = U
NORAD_CAT_ID   = 67543
ELEMENT_SET_NO = 999
REV_AT_EPOCH   = 565
BSTAR          = .22342454E-2
MEAN_MOTION_DOT = .348322E-2
MEAN_MOTION_DDOT = 0

