STARLINK-36587          
1 67532U 26014A   26050.12865215  .00386205  00000+0  19218-2 0  9995
2 67532  97.2819 294.1800 0001678  88.0528 272.0933 15.80899276  5655
STARLINK-36417          
1 67533U 26014B   26050.30356851  .00310578  00000+0  19936-2 0  9994
2 67533  97.2827 294.2464 0001422 111.5556 248.5861 15.75359821  5673
STARLINK-36576          
1 67534U 26014C   26050.14052132  .00335185  00000+0  21530-2 0  9996
2 67534  97.2825 294.1638 0002225  77.2812 282.8702 15.75276065  5650
STARLINK-36574          
1 67535U 26014D   26050.25002315 -.00062343  00000+0 -42031-3 0  9992
2 67535  97.2837 294.3069 0003186 107.4746 219.2660 15.75174224  5722
STARLINK-36572          
1 67536U 26014E   26050.09921833  .00304249  00000+0  19573-2 0  9996
2 67536  97.2831 294.0662 0001576 352.9537   7.1706 15.75326153  5645
STARLINK-36561          
1 67537U 26014F   26050.10521704  .00200737  00000+0  13102-2 0  9991
2 67537  97.2849 294.0558 0000323  91.3676 268.7626 15.75279219  5642
STARLINK-36397          
1 67538U 26014G   26050.10909972  .00220274  00000+0  14336-2 0  9997
2 67538  97.2838 294.0504 0001226  12.7911 347.3385 15.75292129  5645
STARLINK-36573          
1 67539U 26014H   26050.25002315 -.00121758  00000+0 -82531-3 0  9991
2 67539  97.2837 294.2954 0001509  98.2541 206.4101 15.75239875  5727
STARLINK-36585          
1 67540U 26014J   26050.10098415  .00279624  00000+0  18056-2 0  9997
2 67540  97.2846 294.0601 0001406 358.4748   1.6513 15.75307976  5643
STARLINK-36579          
1 67541U 26014K   26050.15674883  .00159106  00000+0  10461-2 0  9996
2 67541  97.2835 294.1408 0001775  88.9887 271.1582 15.75227857  5656
STARLINK-35934          
1 67542U 26014L   26050.25002315 -.00105658  00000+0 -71483-3 0  9990
2 67542  97.2838 294.3204 0001816  96.7723 263.8870 15.75235294  5717
STARLINK-36581          
1 67543U 26014M   26050.13063984  .00348322  00000+0  22342-2 0  9991
2 67543  97.2829 294.1747 0002097  92.4959 267.6547 15.75272486  5654
